{"type": "FeatureCollection", "features": [ {"type": "Feature", "properties": {"norad_id": 28659, "name": "DIRECTV 8", "group": "intelsat", "lat": 0.024830790566915638, "lon": 132.8721483665446, "alt_km": 35794.589337783495, "timestamp": "2025-12-09T11:33:54.468025+00:00", "meta": {"OBJECT_NAME": "DIRECTV 8", "OBJECT_ID": "2005-019A", "EPOCH": "2025-12-09T04:15:38.584224", "MEAN_MOTION": 1.00271825, "ECCENTRICITY": 0.0003194, "INCLINATION": 0.0174, "RA_OF_ASC_NODE": 2.2628, "ARG_OF_PERICENTER": 259.7582, "MEAN_ANOMALY": 121.0168, "EPHEMERIS_TYPE": 0, "CLASSIFICATION_TYPE": "U", "NORAD_CAT_ID": 28659, "ELEMENT_SET_NO": 999, "REV_AT_EPOCH": 7516, "BSTAR": 0, "MEAN_MOTION_DOT": 3e-08, "MEAN_MOTION_DDOT": 0}, "tle": {"line1": "1 28659U 05019A   25343.17752991  .00000003  00000+0  00000+0 0  9994", "line2": "2 28659   0.0174   2.2628 0003194 259.7582 121.0168  1.00271825 75163"}}, "geometry": {"type": "Point", "coordinates": [132.8721483665446, 0.024830790566915638]}}, {"type": "Feature", "properties": {"norad_id": 28702, "name": "GALAXY 28 (G-28)", "group": "intelsat", "lat": 2.7842080608803563, "lon": 163.22528300583875, "alt_km": 35787.313143929285, "timestamp": "2025-12-09T11:33:54.468038+00:00", "meta": {"OBJECT_NAME": "GALAXY 28 (G-28)", "OBJECT_ID": "2005-022A", "EPOCH": "2025-12-09T04:04:38.821728", "MEAN_MOTION": 1.00271187, "ECCENTRICITY": 0.0002677, "INCLINATION": 2.8095, "RA_OF_ASC_NODE": 81.3234, "ARG_OF_PERICENTER": 179.0448, "MEAN_ANOMALY": 150.2747, "EPHEMERIS_TYPE": 0, "CLASSIFICATION_TYPE": "U", "NORAD_CAT_ID": 28702, "ELEMENT_SET_NO": 999, "REV_AT_EPOCH": 5006, "BSTAR": 0, "MEAN_MOTION_DOT": -1.86e-06, "MEAN_MOTION_DDOT": 0}, "tle": {"line1": "1 28702U 05022A   25343.16989377 -.00000186  00000+0  00000+0 0  9999", "line2": "2 28702   2.8095  81.3234 0002677 179.0448 150.2747  1.00271187 50065"}}, "geometry": {"type": "Point", "coordinates": [163.22528300583875, 2.7842080608803563]}}, {"type": "Feature", "properties": {"norad_id": 29236, "name": "GALAXY 16 (G-16)", "group": "intelsat", "lat": 0.0014174754974864594, "lon": 152.90144886426134, "alt_km": 35787.82898184222, "timestamp": "2025-12-09T11:33:54.468050+00:00", "meta": {"OBJECT_NAME": "GALAXY 16 (G-16)", "OBJECT_ID": "2006-023A", "EPOCH": "2025-12-09T04:26:37.415328", "MEAN_MOTION": 1.002722, "ECCENTRICITY": 0.0002843, "INCLINATION": 0.0135, "RA_OF_ASC_NODE": 100.9265, "ARG_OF_PERICENTER": 150.7765, "MEAN_ANOMALY": 154.1202, "EPHEMERIS_TYPE": 0, "CLASSIFICATION_TYPE": "U", "NORAD_CAT_ID": 29236, "ELEMENT_SET_NO": 999, "REV_AT_EPOCH": 7106, "BSTAR": 0, "MEAN_MOTION_DOT": -1.25e-06, "MEAN_MOTION_DDOT": 0}, "tle": {"line1": "1 29236U 06023A   25343.18515527 -.00000125  00000+0  00000+0 0  9991", "line2": "2 29236   0.0135 100.9265 0002843 150.7765 154.1202  1.00272200 71067"}}, "geometry": {"type": "Point", "coordinates": [152.90144886426134, 0.0014174754974864594]}}, {"type": "Feature", "properties": {"norad_id": 29494, "name": "DIRECTV 9S", "group": "intelsat", "lat": 1.7898647953884708, "lon": 150.68671162322076, "alt_km": 35790.835523350055, "timestamp": "2025-12-09T11:33:54.468062+00:00", "meta": {"OBJECT_NAME": "DIRECTV 9S", "OBJECT_ID": "2006-043A", "EPOCH": "2025-12-09T04:12:38.528352", "MEAN_MOTION": 1.0027068, "ECCENTRICITY": 0.0003173, "INCLINATION": 1.9311, "RA_OF_ASC_NODE": 83.2426, "ARG_OF_PERICENTER": 177.8119, "MEAN_ANOMALY": 139.0616, "EPHEMERIS_TYPE": 0, "CLASSIFICATION_TYPE": "U", "NORAD_CAT_ID": 29494, "ELEMENT_SET_NO": 999, "REV_AT_EPOCH": 4947, "BSTAR": 0, "MEAN_MOTION_DOT": -1.11e-06, "MEAN_MOTION_DDOT": 0}, "tle": {"line1": "1 29494U 06043A   25343.17544593 -.00000111  00000+0  00000+0 0  9998", "line2": "2 29494   1.9311  83.2426 0003173 177.8119 139.0616  1.00270680 49472"}}, "geometry": {"type": "Point", "coordinates": [150.68671162322076, 1.7898647953884708]}}, {"type": "Feature", "properties": {"norad_id": 31307, "name": "GALAXY 17 (G-17)", "group": "intelsat", "lat": 2.4808714265742715, "lon": 166.88126580119223, "alt_km": 35780.02454880097, "timestamp": "2025-12-09T11:33:54.468074+00:00", "meta": {"OBJECT_NAME": "GALAXY 17 (G-17)", "OBJECT_ID": "2007-016B", "EPOCH": "2025-12-09T03:56:38.639904", "MEAN_MOTION": 1.00272588, "ECCENTRICITY": 0.0006084, "INCLINATION": 2.491, "RA_OF_ASC_NODE": 82.3224, "ARG_OF_PERICENTER": 162.0531, "MEAN_ANOMALY": 167.9492, "EPHEMERIS_TYPE": 0, "CLASSIFICATION_TYPE": "U", "NORAD_CAT_ID": 31307, "ELEMENT_SET_NO": 999, "REV_AT_EPOCH": 6789, "BSTAR": 0, "MEAN_MOTION_DOT": -2.05e-06, "MEAN_MOTION_DDOT": 0}, "tle": {"line1": "1 31307U 07016B   25343.16433611 -.00000205  00000+0  00000+0 0  9996", "line2": "2 31307   2.4910  82.3224 0006084 162.0531 167.9492  1.00272588 67890"}}, "geometry": {"type": "Point", "coordinates": [166.88126580119223, 2.4808714265742715]}}, {"type": "Feature", "properties": {"norad_id": 31862, "name": "DIRECTV 10", "group": "intelsat", "lat": -0.0008889267582486382, "lon": 149.16153928839105, "alt_km": 35785.456601545135, "timestamp": "2025-12-09T11:33:54.468085+00:00", "meta": {"OBJECT_NAME": "DIRECTV 10", "OBJECT_ID": "2007-032A", "EPOCH": "2025-12-08T14:49:37.716960", "MEAN_MOTION": 1.00272413, "ECCENTRICITY": 4.123e-05, "INCLINATION": 0.0164, "RA_OF_ASC_NODE": 163.1982, "ARG_OF_PERICENTER": 60.4028, "MEAN_ANOMALY": 333.6449, "EPHEMERIS_TYPE": 0, "CLASSIFICATION_TYPE": "U", "NORAD_CAT_ID": 31862, "ELEMENT_SET_NO": 999, "REV_AT_EPOCH": 4368, "BSTAR": 0, "MEAN_MOTION_DOT": -1.01e-06, "MEAN_MOTION_DDOT": 0}, "tle": {"line1": "1 31862U 07032A   25342.61779765 -.00000101  00000+0  00000+0 0  9997", "line2": "2 31862   0.0164 163.1982 0000412  60.4028 333.6449  1.00272413 43683"}}, "geometry": {"type": "Point", "coordinates": [149.16153928839105, -0.0008889267582486382]}}, {"type": "Feature", "properties": {"norad_id": 32253, "name": "INTELSAT 11 (IS-11)", "group": "intelsat", "lat": 2.3951755170211517, "lon": 131.84065032425997, "alt_km": 36148.00926072017, "timestamp": "2025-12-09T11:33:54.468097+00:00", "meta": {"OBJECT_NAME": "INTELSAT 11 (IS-11)", "OBJECT_ID": "2007-044B", "EPOCH": "2025-12-09T04:53:21.993792", "MEAN_MOTION": 0.99047855, "ECCENTRICITY": 0.0009117, "INCLINATION": 3.0711, "RA_OF_ASC_NODE": 81.0135, "ARG_OF_PERICENTER": 164.4337, "MEAN_ANOMALY": 147.3461, "EPHEMERIS_TYPE": 0, "CLASSIFICATION_TYPE": "U", "NORAD_CAT_ID": 32253, "ELEMENT_SET_NO": 999, "REV_AT_EPOCH": 6656, "BSTAR": 0, "MEAN_MOTION_DOT": 7.2e-07, "MEAN_MOTION_DDOT": 0}, "tle": {"line1": "1 32253U 07044B   25343.20372678  .00000072  00000+0  00000+0 0  9999", "line2": "2 32253   3.0711  81.0135 0009117 164.4337 147.3461  0.99047855 66569"}}, "geometry": {"type": "Point", "coordinates": [131.84065032425997, 2.3951755170211517]}}, {"type": "Feature", "properties": {"norad_id": 32388, "name": "HORIZONS-2", "group": "intelsat", "lat": 2.100534807388386, "lon": 178.11176350593828, "alt_km": 35786.76756219461, "timestamp": "2025-12-09T11:33:54.468109+00:00", "meta": {"OBJECT_NAME": "HORIZONS-2", "OBJECT_ID": "2007-063B", "EPOCH": "2025-12-09T03:56:38.639904", "MEAN_MOTION": 1.00270568, "ECCENTRICITY": 0.0005034, "INCLINATION": 2.1123, "RA_OF_ASC_NODE": 82.9961, "ARG_OF_PERICENTER": 186.7935, "MEAN_ANOMALY": 153.7493, "EPHEMERIS_TYPE": 0, "CLASSIFICATION_TYPE": "U", "NORAD_CAT_ID": 32388, "ELEMENT_SET_NO": 999, "REV_AT_EPOCH": 6590, "BSTAR": 0, "MEAN_MOTION_DOT": -2.52e-06, "MEAN_MOTION_DDOT": 0}, "tle": {"line1": "1 32388U 07063B   25343.16433611 -.00000252  00000+0  00000+0 0  9990", "line2": "2 32388   2.1123  82.9961 0005034 186.7935 153.7493  1.00270568 65902"}}, "geometry": {"type": "Point", "coordinates": [178.11176350593828, 2.100534807388386]}}, {"type": "Feature", "properties": {"norad_id": 32729, "name": "DIRECTV 11", "group": "intelsat", "lat": -0.00043873830679826294, "lon": 152.75314026943582, "alt_km": 35784.434758310075, "timestamp": "2025-12-09T11:33:54.468121+00:00", "meta": {"OBJECT_NAME": "DIRECTV 11", "OBJECT_ID": "2008-013A", "EPOCH": "2025-12-08T14:50:30.133248", "MEAN_MOTION": 1.00272882, "ECCENTRICITY": 5.266e-05, "INCLINATION": 0.0228, "RA_OF_ASC_NODE": 202.5194, "ARG_OF_PERICENTER": 2.0786, "MEAN_ANOMALY": 356.4573, "EPHEMERIS_TYPE": 0, "CLASSIFICATION_TYPE": "U", "NORAD_CAT_ID": 32729, "ELEMENT_SET_NO": 999, "REV_AT_EPOCH": 4368, "BSTAR": 0, "MEAN_MOTION_DOT": -1.24e-06, "MEAN_MOTION_DDOT": 0}, "tle": {"line1": "1 32729U 08013A   25342.61840432 -.00000124  00000+0  00000+0 0  9995", "line2": "2 32729   0.0228 202.5194 0000526   2.0786 356.4573  1.00272882 43680"}}, "geometry": {"type": "Point", "coordinates": [152.75314026943582, -0.00043873830679826294]}}, {"type": "Feature", "properties": {"norad_id": 32951, "name": "GALAXY 18 (G-18)", "group": "intelsat", "lat": 0.0026550640141909726, "lon": 128.9090442708578, "alt_km": 35794.83027718007, "timestamp": "2025-12-09T11:33:54.468133+00:00", "meta": {"OBJECT_NAME": "GALAXY 18 (G-18)", "OBJECT_ID": "2008-024A", "EPOCH": "2025-12-09T02:50:38.725728", "MEAN_MOTION": 1.00272449, "ECCENTRICITY": 0.0003186, "INCLINATION": 0.0132, "RA_OF_ASC_NODE": 293.3282, "ARG_OF_PERICENTER": 327.1794, "MEAN_ANOMALY": 97.2576, "EPHEMERIS_TYPE": 0, "CLASSIFICATION_TYPE": "U", "NORAD_CAT_ID": 32951, "ELEMENT_SET_NO": 999, "REV_AT_EPOCH": 4394, "BSTAR": 0, "MEAN_MOTION_DOT": 2.7e-07, "MEAN_MOTION_DDOT": 0}, "tle": {"line1": "1 32951U 08024A   25343.11850377  .00000027  00000+0  00000+0 0  9990", "line2": "2 32951   0.0132 293.3282 0003186 327.1794  97.2576  1.00272449 43943"}}, "geometry": {"type": "Point", "coordinates": [128.9090442708578, 0.0026550640141909726]}}]}